{"type": "FeatureCollection", "features": [ {"type": "Feature", "properties": {"norad_id": 37089, "name": "COSMOS 2251 DEB", "group": "cosmos-2251-debris", "lat": 68.14383325611051, "lon": 176.25580424595262, "alt_km": 794.5139174524074, "timestamp": "2025-12-20T16:47:36.682191+00:00", "meta": {"OBJECT_NAME": "COSMOS 2251 DEB", "OBJECT_ID": "1993-036BFK", "EPOCH": "2025-12-15T02:35:52.652256", "MEAN_MOTION": 14.5300115, "ECCENTRICITY": 0.01350597, "INCLINATION": 74.0363, "RA_OF_ASC_NODE": 141.2743, "ARG_OF_PERICENTER": 240.987, "MEAN_ANOMALY": 117.7703, "EPHEMERIS_TYPE": 0, "CLASSIFICATION_TYPE": "U", "NORAD_CAT_ID": 37089, "ELEMENT_SET_NO": 999, "REV_AT_EPOCH": 66144, "BSTAR": 0.0016025339, "MEAN_MOTION_DOT": 7.435e-05, "MEAN_MOTION_DDOT": 0}, "tle": {"line1": "1 37089U 93036BFK 25349.10824829  .00007435  00000+0  16025-2 0  9999", "line2": "2 37089  74.0363 141.2743 0135059 240.9870 117.7703 14.53001150661444"}}, "geometry": {"type": "Point", "coordinates": [176.25580424595262, 68.14383325611051]}}, {"type": "Feature", "properties": {"norad_id": 37094, "name": "COSMOS 2251 DEB", "group": "cosmos-2251-debris", "lat": 49.13765621542449, "lon": -92.65105869637287, "alt_km": 728.1455163982891, "timestamp": "2025-12-20T16:47:36.682201+00:00", "meta": {"OBJECT_NAME": "COSMOS 2251 DEB", "OBJECT_ID": "1993-036BFQ", "EPOCH": "2025-12-10T15:45:11.030688", "MEAN_MOTION": 14.37808892, "ECCENTRICITY": 0.0084108, "INCLINATION": 74.1091, "RA_OF_ASC_NODE": 124.9809, "ARG_OF_PERICENTER": 91.4784, "MEAN_ANOMALY": 269.6007, "EPHEMERIS_TYPE": 0, "CLASSIFICATION_TYPE": "U", "NORAD_CAT_ID": 37094, "ELEMENT_SET_NO": 999, "REV_AT_EPOCH": 84476, "BSTAR": 0.0015212, "MEAN_MOTION_DOT": 4.753e-05, "MEAN_MOTION_DDOT": 0}, "tle": {"line1": "1 37094U 93036BFQ 25344.65637767  .00004753  00000+0  15212-2 0  9990", "line2": "2 37094  74.1091 124.9809 0084108  91.4784 269.6007 14.37808892844763"}}, "geometry": {"type": "Point", "coordinates": [-92.65105869637287, 49.13765621542449]}}, {"type": "Feature", "properties": {"norad_id": 37095, "name": "COSMOS 2251 DEB", "group": "cosmos-2251-debris", "lat": 30.761351182147326, "lon": -14.046494061447563, "alt_km": 863.7812832603959, "timestamp": "2025-12-20T16:47:36.682211+00:00", "meta": {"OBJECT_NAME": "COSMOS 2251 DEB", "OBJECT_ID": "1993-036BFR", "EPOCH": "2025-12-20T05:48:30.438144", "MEAN_MOTION": 14.03423265, "ECCENTRICITY": 0.0193726, "INCLINATION": 73.8447, "RA_OF_ASC_NODE": 176.6944, "ARG_OF_PERICENTER": 233.1449, "MEAN_ANOMALY": 125.1788, "EPHEMERIS_TYPE": 0, "CLASSIFICATION_TYPE": "U", "NORAD_CAT_ID": 37095, "ELEMENT_SET_NO": 999, "REV_AT_EPOCH": 62741, "BSTAR": 0.00075144, "MEAN_MOTION_DOT": 1.362e-05, "MEAN_MOTION_DDOT": 0}, "tle": {"line1": "1 37095U 93036BFR 25354.24201896  .00001362  00000+0  75144-3 0  9991", "line2": "2 37095  73.8447 176.6944 0193726 233.1449 125.1788 14.03423265627412"}}, "geometry": {"type": "Point", "coordinates": [-14.046494061447563, 30.761351182147326]}}, {"type": "Feature", "properties": {"norad_id": 37108, "name": "COSMOS 2251 DEB", "group": "cosmos-2251-debris", "lat": -18.428315941261996, "lon": -108.70117688224295, "alt_km": 724.5105242987811, "timestamp": "2025-12-20T16:47:36.682221+00:00", "meta": {"OBJECT_NAME": "COSMOS 2251 DEB", "OBJECT_ID": "1993-036BGE", "EPOCH": "2025-12-19T14:53:35.707488", "MEAN_MOTION": 14.41350949, "ECCENTRICITY": 0.00906536, "INCLINATION": 74.0446, "RA_OF_ASC_NODE": 67.8256, "ARG_OF_PERICENTER": 142.8208, "MEAN_ANOMALY": 217.9273, "EPHEMERIS_TYPE": 0, "CLASSIFICATION_TYPE": "U", "NORAD_CAT_ID": 37108, "ELEMENT_SET_NO": 999, "REV_AT_EPOCH": 85606, "BSTAR": 0.00071158692, "MEAN_MOTION_DOT": 2.393e-05, "MEAN_MOTION_DDOT": 0}, "tle": {"line1": "1 37108U 93036BGE 25353.62055217  .00002393  00000+0  71159-3 0  9998", "line2": "2 37108  74.0446  67.8256 0090653 142.8208 217.9273 14.41350949856064"}}, "geometry": {"type": "Point", "coordinates": [-108.70117688224295, -18.428315941261996]}}, {"type": "Feature", "properties": {"norad_id": 37126, "name": "COSMOS 2251 DEB", "group": "cosmos-2251-debris", "lat": -66.49326720339451, "lon": -62.495864100452884, "alt_km": 630.5273756418783, "timestamp": "2025-12-20T16:47:36.682231+00:00", "meta": {"OBJECT_NAME": "COSMOS 2251 DEB", "OBJECT_ID": "1993-036BGY", "EPOCH": "2025-12-20T05:42:55.988064", "MEAN_MOTION": 14.73095826, "ECCENTRICITY": 0.012286, "INCLINATION": 73.953, "RA_OF_ASC_NODE": 339.8407, "ARG_OF_PERICENTER": 216.3855, "MEAN_ANOMALY": 142.8921, "EPHEMERIS_TYPE": 0, "CLASSIFICATION_TYPE": "U", "NORAD_CAT_ID": 37126, "ELEMENT_SET_NO": 999, "REV_AT_EPOCH": 8209, "BSTAR": 0.00014955, "MEAN_MOTION_DOT": 1.046e-05, "MEAN_MOTION_DDOT": 0}, "tle": {"line1": "1 37126U 93036BGY 25354.23814801  .00001046  00000+0  14955-3 0  9993", "line2": "2 37126  73.9530 339.8407 0122860 216.3855 142.8921 14.73095826 82092"}}, "geometry": {"type": "Point", "coordinates": [-62.495864100452884, -66.49326720339451]}}, {"type": "Feature", "properties": {"norad_id": 37132, "name": "COSMOS 2251 DEB", "group": "cosmos-2251-debris", "lat": 58.74213804545231, "lon": 10.18323061928546, "alt_km": 636.9378140995123, "timestamp": "2025-12-20T16:47:36.682241+00:00", "meta": {"OBJECT_NAME": "COSMOS 2251 DEB", "OBJECT_ID": "1993-036BHE", "EPOCH": "2025-12-15T09:32:55.769280", "MEAN_MOTION": 14.77873409, "ECCENTRICITY": 0.00399597, "INCLINATION": 74.0031, "RA_OF_ASC_NODE": 228.8126, "ARG_OF_PERICENTER": 24.0962, "MEAN_ANOMALY": 336.207, "EPHEMERIS_TYPE": 0, "CLASSIFICATION_TYPE": "U", "NORAD_CAT_ID": 37132, "ELEMENT_SET_NO": 999, "REV_AT_EPOCH": 62455, "BSTAR": 0.00059917342, "MEAN_MOTION_DOT": 4.336e-05, "MEAN_MOTION_DDOT": 0}, "tle": {"line1": "1 37132U 93036BHE 25349.39786770  .00004336  00000+0  59917-3 0  9996", "line2": "2 37132  74.0031 228.8126 0039959  24.0962 336.2070 14.77873409624553"}}, "geometry": {"type": "Point", "coordinates": [10.18323061928546, 58.74213804545231]}}, {"type": "Feature", "properties": {"norad_id": 37270, "name": "COSMOS 2251 DEB", "group": "cosmos-2251-debris", "lat": 42.35710874357377, "lon": 127.67621887980283, "alt_km": 1311.938277210449, "timestamp": "2025-12-20T16:47:36.682251+00:00", "meta": {"OBJECT_NAME": "COSMOS 2251 DEB", "OBJECT_ID": "1993-036BHJ", "EPOCH": "2025-12-12T22:45:06.098400", "MEAN_MOTION": 13.59808663, "ECCENTRICITY": 0.03985351, "INCLINATION": 73.9378, "RA_OF_ASC_NODE": 335.5481, "ARG_OF_PERICENTER": 347.3958, "MEAN_ANOMALY": 11.7404, "EPHEMERIS_TYPE": 0, "CLASSIFICATION_TYPE": "U", "NORAD_CAT_ID": 37270, "ELEMENT_SET_NO": 999, "REV_AT_EPOCH": 77072, "BSTAR": 0.0064936549, "MEAN_MOTION_DOT": 8.148e-05, "MEAN_MOTION_DDOT": 0}, "tle": {"line1": "1 37270U 93036BHJ 25346.94798725  .00008148  00000+0  64937-2 0  9992", "line2": "2 37270  73.9378 335.5481 0398535 347.3958  11.7404 13.59808663770728"}}, "geometry": {"type": "Point", "coordinates": [127.67621887980283, 42.35710874357377]}}, {"type": "Feature", "properties": {"norad_id": 37278, "name": "COSMOS 2251 DEB", "group": "cosmos-2251-debris", "lat": -52.094689673898095, "lon": -46.99679375810923, "alt_km": 1031.0613442824288, "timestamp": "2025-12-20T16:47:36.682260+00:00", "meta": {"OBJECT_NAME": "COSMOS 2251 DEB", "OBJECT_ID": "1993-036BHS", "EPOCH": "2025-12-04T09:26:36.152736", "MEAN_MOTION": 14.15029915, "ECCENTRICITY": 0.029998, "INCLINATION": 73.7864, "RA_OF_ASC_NODE": 4.3592, "ARG_OF_PERICENTER": 188.2556, "MEAN_ANOMALY": 234.4903, "EPHEMERIS_TYPE": 0, "CLASSIFICATION_TYPE": "U", "NORAD_CAT_ID": 37278, "ELEMENT_SET_NO": 999, "REV_AT_EPOCH": 63711, "BSTAR": 0.0023061, "MEAN_MOTION_DOT": 6.884e-05, "MEAN_MOTION_DDOT": 0}, "tle": {"line1": "1 37278U 93036BHS 25338.39347399  .00006884  00000+0  23061-2 0  9995", "line2": "2 37278  73.7864   4.3592 0299980 188.2556 234.4903 14.15029915637119"}}, "geometry": {"type": "Point", "coordinates": [-46.99679375810923, -52.094689673898095]}}, {"type": "Feature", "properties": {"norad_id": 37280, "name": "COSMOS 2251 DEB", "group": "cosmos-2251-debris", "lat": 8.103659688618809, "lon": 45.17774387341855, "alt_km": 917.8900488912686, "timestamp": "2025-12-20T16:47:36.682270+00:00", "meta": {"OBJECT_NAME": "COSMOS 2251 DEB", "OBJECT_ID": "1993-036BHU", "EPOCH": "2025-12-18T10:37:18.156864", "MEAN_MOTION": 14.19346827, "ECCENTRICITY": 0.01304682, "INCLINATION": 74.0327, "RA_OF_ASC_NODE": 46.8744, "ARG_OF_PERICENTER": 174.3277, "MEAN_ANOMALY": 185.9383, "EPHEMERIS_TYPE": 0, "CLASSIFICATION_TYPE": "U", "NORAD_CAT_ID": 37280, "ELEMENT_SET_NO": 999, "REV_AT_EPOCH": 57404, "BSTAR": 0.00096951251, "MEAN_MOTION_DOT": 2.193e-05, "MEAN_MOTION_DDOT": 0}, "tle": {"line1": "1 37280U 93036BHU 25352.44257126  .00002193  00000+0  96951-3 0  9996", "line2": "2 37280  74.0327  46.8744 0130468 174.3277 185.9383 14.19346827574043"}}, "geometry": {"type": "Point", "coordinates": [45.17774387341855, 8.103659688618809]}}, {"type": "Feature", "properties": {"norad_id": 37284, "name": "COSMOS 2251 DEB", "group": "cosmos-2251-debris", "lat": 2.0779092658926333, "lon": -37.95807730311707, "alt_km": 899.5434648957225, "timestamp": "2025-12-20T16:47:36.682280+00:00", "meta": {"OBJECT_NAME": "COSMOS 2251 DEB", "OBJECT_ID": "1993-036BHY", "EPOCH": "2025-12-10T18:04:20.469216", "MEAN_MOTION": 14.12686618, "ECCENTRICITY": 0.01605026, "INCLINATION": 74.0123, "RA_OF_ASC_NODE": 160.2425, "ARG_OF_PERICENTER": 312.4867, "MEAN_ANOMALY": 59.8736, "EPHEMERIS_TYPE": 0, "CLASSIFICATION_TYPE": "U", "NORAD_CAT_ID": 37284, "ELEMENT_SET_NO": 999, "REV_AT_EPOCH": 59147, "BSTAR": 0.001592138, "MEAN_MOTION_DOT": 3.31e-05, "MEAN_MOTION_DDOT": 0}, "tle": {"line1": "1 37284U 93036BHY 25344.75301469  .00003310  00000+0  15921-2 0  9994", "line2": "2 37284  74.0123 160.2425 0160502 312.4867  59.8736 14.12686618591475"}}, "geometry": {"type": "Point", "coordinates": [-37.95807730311707, 2.0779092658926333]}}]}